{
  "type": "FeatureCollection",
  "features": [
    {
      "type": "Feature",
      "properties": {
        "norad_id": 30136,
        "name": "FENGYUN 1C DEB",
        "group": "fengyun-1c-debris",
        "lat": -63.32064004742272,
        "lon": -92.05960255434255,
        "alt_km": 935.1061351571834,
        "timestamp": "2025-12-24T11:33:00.290963+00:00",
        "meta_object_name": "FENGYUN 1C DEB",
        "meta_object_id": "1999-025SR",
        "meta_epoch": "2025-12-23T15:20:17.984256",
        "meta_mean_motion": 13.95337965,
        "meta_eccentricity": 0.012943,
        "meta_inclination": 98.5565,
        "meta_ra_of_asc_node": 249.7243,
        "meta_arg_of_pericenter": 39.4593,
        "meta_mean_anomaly": 349.4186,
        "meta_ephemeris_type": 0,
        "meta_classification_type": "U",
        "meta_norad_cat_id": 30136,
        "meta_element_set_no": 999,
        "meta_rev_at_epoch": 96243,
        "meta_bstar": 0.00054205794,
        "meta_mean_motion_dot": 7.48e-06,
        "meta_mean_motion_ddot": 0,
        "tle_line1": "1 30136U 99025SR  25357.63909704  .00000748  00000+0  54206-3 0  9996",
        "tle_line2": "2 30136  98.5565 249.7243 0129430  39.4593 349.4186 13.95337965962436"
      },
      "geometry": {
        "type": "Point",
        "coordinates": [
          -92.05960255434255,
          -63.32064004742272
        ]
      }
    },
    {
      "type": "Feature",
      "properties": {
        "norad_id": 30138,
        "name": "FENGYUN 1C DEB",
        "group": "fengyun-1c-debris",
        "lat": -10.574039303636338,
        "lon": 53.27230689383884,
        "alt_km": 835.8782582186413,
        "timestamp": "2025-12-24T11:33:00.290973+00:00",
        "meta_object_name": "FENGYUN 1C DEB",
        "meta_object_id": "1999-025ST",
        "meta_epoch": "2025-12-24T03:24:10.403712",
        "meta_mean_motion": 14.20063198,
        "meta_eccentricity": 0.0020287,
        "meta_inclination": 98.7582,
        "meta_ra_of_asc_node": 51.2873,
        "meta_arg_of_pericenter": 107.1627,
        "meta_mean_anomaly": 308.0093,
        "meta_ephemeris_type": 0,
        "meta_classification_type": "U",
        "meta_norad_cat_id": 30138,
        "meta_element_set_no": 999,
        "meta_rev_at_epoch": 97563,
        "meta_bstar": 0.00071038,
        "meta_mean_motion_dot": 1.472e-05,
        "meta_mean_motion_ddot": 0,
        "tle_line1": "1 30138U 99025ST  25358.14178708  .00001472  00000+0  71038-3 0  9994",
        "tle_line2": "2 30138  98.7582  51.2873 0020287 107.1627 308.0093 14.20063198975632"
      },
      "geometry": {
        "type": "Point",
        "coordinates": [
          53.27230689383884,
          -10.574039303636338
        ]
      }
    },
    {
      "type": "Feature",
      "properties": {
        "norad_id": 30139,
        "name": "FENGYUN 1C DEB",
        "group": "fengyun-1c-debris",
        "lat": -35.46110085104395,
        "lon": 15.126071142856343,
        "alt_km": 815.2851061967312,
        "timestamp": "2025-12-24T11:33:00.290983+00:00",
        "meta_object_name": "FENGYUN 1C DEB",
        "meta_object_id": "1999-025SU",
        "meta_epoch": "2025-12-23T01:05:41.861760",
        "meta_mean_motion": 14.03686762,
        "meta_eccentricity": 0.01309193,
        "meta_inclination": 98.3639,
        "meta_ra_of_asc_node": 199.8195,
        "meta_arg_of_pericenter": 261.1334,
        "meta_mean_anomaly": 265.0735,
        "meta_ephemeris_type": 0,
        "meta_classification_type": "U",
        "meta_norad_cat_id": 30139,
        "meta_element_set_no": 999,
        "meta_rev_at_epoch": 96394,
        "meta_bstar": 0.0010889689,
        "meta_mean_motion_dot": 1.807e-05,
        "meta_mean_motion_ddot": 0,
        "tle_line1": "1 30139U 99025SU  25357.04562340  .00001807  00000+0  10890-2 0  9992",
        "tle_line2": "2 30139  98.3639 199.8195 0130919 261.1334 265.0735 14.03686762963943"
      },
      "geometry": {
        "type": "Point",
        "coordinates": [
          15.126071142856343,
          -35.46110085104395
        ]
      }
    },
    {
      "type": "Feature",
      "properties": {
        "norad_id": 30140,
        "name": "FENGYUN 1C DEB",
        "group": "fengyun-1c-debris",
        "lat": -14.887577124354406,
        "lon": -121.03204475943417,
        "alt_km": 822.2322318616052,
        "timestamp": "2025-12-24T11:33:00.290994+00:00",
        "meta_object_name": "FENGYUN 1C DEB",
        "meta_object_id": "1999-025SV",
        "meta_epoch": "2025-12-20T22:58:02.462016",
        "meta_mean_motion": 14.20787968,
        "meta_eccentricity": 0.0040948,
        "meta_inclination": 98.8258,
        "meta_ra_of_asc_node": 57.8166,
        "meta_arg_of_pericenter": 285.4592,
        "meta_mean_anomaly": 253.8839,
        "meta_ephemeris_type": 0,
        "meta_classification_type": "U",
        "meta_norad_cat_id": 30140,
        "meta_element_set_no": 999,
        "meta_rev_at_epoch": 97260,
        "meta_bstar": 0.00086556,
        "meta_mean_motion_dot": 1.84e-05,
        "meta_mean_motion_ddot": 0,
        "tle_line1": "1 30140U 99025SV  25354.95697294  .00001840  00000+0  86556-3 0  9998",
        "tle_line2": "2 30140  98.8258  57.8166 0040948 285.4592 253.8839 14.20787968972607"
      },
      "geometry": {
        "type": "Point",
        "coordinates": [
          -121.03204475943417,
          -14.887577124354406
        ]
      }
    },
    {
      "type": "Feature",
      "properties": {
        "norad_id": 30141,
        "name": "FENGYUN 1C DEB",
        "group": "fengyun-1c-debris",
        "lat": 62.283563601647714,
        "lon": 118.6876740167137,
        "alt_km": 718.7445520797328,
        "timestamp": "2025-12-24T11:33:00.291004+00:00",
        "meta_object_name": "FENGYUN 1C DEB",
        "meta_object_id": "1999-025SW",
        "meta_epoch": "2025-12-23T11:51:36.964512",
        "meta_mean_motion": 14.51775305,
        "meta_eccentricity": 0.00193714,
        "meta_inclination": 99.0153,
        "meta_ra_of_asc_node": 280.0403,
        "meta_arg_of_pericenter": 7.5353,
        "meta_mean_anomaly": 352.6127,
        "meta_ephemeris_type": 0,
        "meta_classification_type": "U",
        "meta_norad_cat_id": 30141,
        "meta_element_set_no": 999,
        "meta_rev_at_epoch": 98400,
        "meta_bstar": 0.0027888668,
        "meta_mean_motion_dot": 0.00011206,
        "meta_mean_motion_ddot": 0,
        "tle_line1": "1 30141U 99025SW  25357.49417783  .00011206  00000+0  27889-2 0  9994",
        "tle_line2": "2 30141  99.0153 280.0403 0019371   7.5353 352.6127 14.51775305984004"
      },
      "geometry": {
        "type": "Point",
        "coordinates": [
          118.6876740167137,
          62.283563601647714
        ]
      }
    },
    {
      "type": "Feature",
      "properties": {
        "norad_id": 30142,
        "name": "FENGYUN 1C DEB",
        "group": "fengyun-1c-debris",
        "lat": 30.195702976984435,
        "lon": 69.06968254515688,
        "alt_km": 887.3355955764218,
        "timestamp": "2025-12-24T11:33:00.291015+00:00",
        "meta_object_name": "FENGYUN 1C DEB",
        "meta_object_id": "1999-025SX",
        "meta_epoch": "2025-12-23T16:40:42.050496",
        "meta_mean_motion": 14.10540316,
        "meta_eccentricity": 0.01021474,
        "meta_inclination": 99.1275,
        "meta_ra_of_asc_node": 73.6395,
        "meta_arg_of_pericenter": 277.1952,
        "meta_mean_anomaly": 81.7615,
        "meta_ephemeris_type": 0,
        "meta_classification_type": "U",
        "meta_norad_cat_id": 30142,
        "meta_element_set_no": 999,
        "meta_rev_at_epoch": 96453,
        "meta_bstar": 0.0015826537,
        "meta_mean_motion_dot": 2.914e-05,
        "meta_mean_motion_ddot": 0,
        "tle_line1": "1 30142U 99025SX  25357.69493114  .00002914  00000+0  15827-2 0  9994",
        "tle_line2": "2 30142  99.1275  73.6395 0102147 277.1952  81.7615 14.10540316964536"
      },
      "geometry": {
        "type": "Point",
        "coordinates": [
          69.06968254515688,
          30.195702976984435
        ]
      }
    },
    {
      "type": "Feature",
      "properties": {
        "norad_id": 30143,
        "name": "FENGYUN 1C DEB",
        "group": "fengyun-1c-debris",
        "lat": -12.686981150542396,
        "lon": -176.72166349485323,
        "alt_km": 887.2813890579437,
        "timestamp": "2025-12-24T11:33:00.291025+00:00",
        "meta_object_name": "FENGYUN 1C DEB",
        "meta_object_id": "1999-025SY",
        "meta_epoch": "2025-12-24T00:13:05.350080",
        "meta_mean_motion": 14.02620107,
        "meta_eccentricity": 0.0103419,
        "meta_inclination": 98.7347,
        "meta_ra_of_asc_node": 180.8421,
        "meta_arg_of_pericenter": 259.4066,
        "meta_mean_anomaly": 223.8474,
        "meta_ephemeris_type": 0,
        "meta_classification_type": "U",
        "meta_norad_cat_id": 30143,
        "meta_element_set_no": 999,
        "meta_rev_at_epoch": 96377,
        "meta_bstar": 0.00096919,
        "meta_mean_motion_dot": 1.524e-05,
        "meta_mean_motion_ddot": 0,
        "tle_line1": "1 30143U 99025SY  25358.00908970  .00001524  00000+0  96919-3 0  9990",
        "tle_line2": "2 30143  98.7347 180.8421 0103419 259.4066 223.8474 14.02620107963770"
      },
      "geometry": {
        "type": "Point",
        "coordinates": [
          -176.72166349485323,
          -12.686981150542396
        ]
      }
    }
  ]
}